{"type":"Feature","properties":{"name":"Tubigon","province":"Bohol","psgc":"0701245000","source":"Philippine GeoRisk/PSA Municipal_2020_Coast","source_url":"https://ulap-nga.georisk.gov.ph/arcgis/rest/services/PSA/Municipal_2020_Coast/MapServer/0","max_allowable_offset_degrees":0.001},"geometry":{"type":"MultiPolygon","coordinates":[[[[123.996238,9.965528],[123.99471,9.963327],[123.984302,9.964073],[123.982447,9.962069],[123.979485,9.962928],[123.971518,9.958221],[123.969747,9.955112],[123.965047,9.955218],[123.962587,9.95708],[123.958546,9.955349],[123.956657,9.957269],[123.96115,9.951582],[123.957881,9.94712],[123.952355,9.9435],[123.952462,9.941818],[123.951739,9.942906],[123.949355,9.941062],[123.944182,9.941719],[123.943456,9.938999],[123.935809,9.937964],[123.931321,9.93366],[123.924535,9.933763],[123.923188,9.931924],[123.916765,9.933659],[123.913068,9.930874],[123.910658,9.932491],[123.911158,9.930966],[123.909138,9.930306],[123.913708,9.922955],[123.930523,9.905178],[123.938027,9.903857],[123.937842,9.899932],[123.946563,9.88872],[123.954374,9.901779],[123.96706,9.899923],[123.975849,9.901433],[123.977785,9.895059],[123.99294,9.884021],[123.997626,9.888327],[123.999309,9.893807],[124.005167,9.894902],[124.006225,9.892253],[124.010137,9.891869],[124.012124,9.89493],[124.014104,9.893806],[124.026567,9.901675],[124.027743,9.900899],[124.029692,9.903708],[124.022923,9.908467],[124.019846,9.928667],[124.016033,9.935195],[124.013798,9.933774],[124.008421,9.938516],[124.004883,9.944651],[124.001271,9.94527],[124.000354,9.951259],[124.002127,9.963259],[124.001704,9.964643],[123.996238,9.965528]]],[[[123.909676,9.947786],[123.907371,9.946083],[123.911747,9.944189],[123.912888,9.946528],[123.909676,9.947786]]],[[[123.922349,9.953758],[123.922218,9.952985],[123.922662,9.953631],[123.922349,9.953758]]],[[[123.917929,9.955929],[123.919268,9.951977],[123.922041,9.952887],[123.917929,9.955929]]],[[[123.902247,9.959325],[123.895084,9.958435],[123.901391,9.956589],[123.902247,9.959325]]],[[[123.989328,9.980691],[123.986119,9.978903],[123.984495,9.975072],[123.986486,9.974955],[123.989755,9.971596],[123.993839,9.974426],[123.989114,9.979969],[123.987612,9.9796],[123.989328,9.980691]]],[[[123.996521,9.982117],[123.996704,9.985718],[123.993103,9.986694],[123.991516,9.9823],[123.996521,9.982117]]],[[[123.882889,9.987287],[123.881415,9.987706],[123.88246,9.986753],[123.882889,9.987287]]],[[[124.00293,9.99231],[124.000916,9.991272],[124.003723,9.989929],[124.00592,9.990723],[124.00293,9.99231]]],[[[124.007874,9.993713],[124.00708,9.996521],[124.0047,9.99408],[124.007874,9.993713]]],[[[123.94034,9.998349],[123.939419,9.997947],[123.941907,9.997651],[123.94034,9.998349]]],[[[124.014709,10.002502],[124.015503,10.004883],[124.013123,10.003113],[124.014709,10.002502]]],[[[123.96592,10.024014],[123.963566,10.023557],[123.963803,10.023131],[123.96592,10.024014]]],[[[123.967033,10.025455],[123.966329,10.024168],[123.967454,10.025091],[123.967033,10.025455]]],[[[123.977824,10.041132],[123.976708,10.041208],[123.97921,10.033411],[123.976398,10.039693],[123.976192,10.036071],[123.981213,10.025574],[123.98078,10.023678],[123.985127,10.016174],[123.986916,10.016447],[123.986028,10.014457],[123.987474,10.015678],[123.987554,10.013948],[123.991791,10.011231],[123.985153,10.021122],[123.985191,10.018181],[123.98341,10.02123],[123.985212,10.023013],[123.983329,10.0231],[123.977824,10.041132]]],[[[123.898845,10.05633],[123.897502,10.054956],[123.900651,10.053988],[123.898845,10.05633]]],[[[123.927023,10.071935],[123.926303,10.071233],[123.928187,10.070707],[123.929641,10.071843],[123.927023,10.071935]]]]}}
